IRIDIUM 144             
1 43249U 18030A   25358.73952924  .00000016  00000+0 -14832-5 0  9998
2 43249  86.3959   3.3276 0002244  91.1028 269.0425 14.34218088405138
IRIDIUM 149             
1 43250U 18030B   25358.74587202  .00000035  00000+0  53386-5 0  9991
2 43250  86.3961   3.2939 0002247  91.6521 268.4932 14.34218012405159
IRIDIUM 157             
1 43251U 18030C   25358.76489932  .00000110  00000+0  32170-4 0  9996
2 43251  86.3964   3.3353 0002139  86.8899 273.2542 14.34217982405132
IRIDIUM 140             
1 43252U 18030D   25358.92346520  .00000040  00000+0  70522-5 0  9996
2 43252  86.3968   3.2822 0002333  91.8637 268.2826 14.34218019405219
IRIDIUM 145             
1 43253U 18030E   25358.77124362  .00000182  00000+0  58098-4 0  9998
2 43253  86.3965   3.3181 0002647  89.1496 271.0003 14.34217779405128
IRIDIUM 146             
1 43254U 18030F   25358.40338536  .00000266  00000+0  87903-4 0  9999
2 43254  86.3965   3.4849 0002398  89.9793 270.1677 14.34217246405083
IRIDIUM 148             
1 43255U 18030G   25358.72050150  .00000037  00000+0  60850-5 0  9997
2 43255  86.3967   3.3927 0002175  87.5907 272.5537 14.34218220405169
IRIDIUM 142             
1 43256U 18030H   25358.54925248  .00000019  00000+0 -22891-6 0  9992
2 43256  86.3961   3.3597 0002626  89.6526 270.4971 14.34218044405105
